H1 CPF 01  gfz 2021 08 02 00  7141 tandemx   
H2 1003001  6202 36605    2021 08 02 00 59 42 2021 08 07 00 00 42   120 1 1  0 0 0
H9
10 0 59429  82782.000000  0     -60771.889  -2855567.137   6257914.385
10 0 59429  82902.000000  0    -345602.651  -2034371.314   6561419.823
10 0 59429  83022.000000  0    -609677.121  -1172870.077   6749611.217
10 0 59429  83142.000000  0    -847818.669   -286509.567   6819201.330
10 0 59429  83262.000000  0   -1055578.057    608751.663   6768974.831
10 0 59429  83382.000000  0   -1229316.080   1496729.914   6599807.906
10 0 59429  83502.000000  0   -1366266.993   2361308.161   6314653.766
10 0 59429  83622.000000  0   -1464582.669   3186728.439   5918494.451
10 0 59429  83742.000000  0   -1523356.698   3957880.470   5418258.584
10 0 59429  83862.000000  0   -1542627.110   4660581.579   4822706.624
10 0 59429  83982.000000  0   -1523359.091   5281844.378   4142283.513
10 0 59429  84102.000000  0   -1467406.468   5810124.994   3388939.094
10 0 59429  84222.000000  0   -1377454.277   6235546.459   2575920.608
10 0 59429  84342.000000  0   -1256943.409   6550093.808   1717538.579
10 0 59429  84462.000000  0   -1109975.796   6747773.842    828910.107
10 0 59429  84582.000000  0    -941205.271   6824734.806    -74313.624
10 0 59429  84702.000000  0    -755716.408   6779345.591   -976230.915
10 0 59429  84822.000000  0    -558893.678   6612228.928  -1860980.708
10 0 59429  84942.000000  0    -356285.544   6326245.853  -2713030.406
10 0 59429  85062.000000  0    -153467.504   5926436.529  -3517452.836
10 0 59429  85182.000000  0      44093.500   5419920.396  -4260189.285
10 0 59429  85302.000000  0     231170.281   4815757.264  -4928293.955
10 0 59429  85422.000000  0     402898.869   4124773.274  -5510154.619
10 0 59429  85542.000000  0     554891.468   3359356.422  -5995686.694
10 0 59429  85662.000000  0     683335.949   2533226.030  -6376497.697
10 0 59429  85782.000000  0     785080.619   1661182.588  -6646020.430
10 0 59429  85902.000000  0     857703.073    758843.020  -6799615.320
10 0 59429  86022.000000  0     899561.600   -157635.687  -6834642.084
10 0 59429  86142.000000  0     909828.987  -1071840.577  -6750499.932
10 0 59429  86262.000000  0     888507.725  -1967389.353  -6548634.916
10 0 59429  86382.000000  0     836427.407  -2828215.018  -6232517.874
10 0 59430    102.000000  0     755223.997  -3638849.087  -5807593.879
10 0 59430    222.000000  0     647299.967  -4384698.598  -5281197.393
10 0 59430    342.000000  0     515767.969  -5052309.394  -4662436.261
10 0 59430    462.000000  0     364377.327  -5629614.105  -3962046.053
10 0 59430    582.000000  0     197424.679  -6106159.494  -3192213.457
10 0 59430    702.000000  0      19650.671  -6473306.676  -2366371.441
10 0 59430    822.000000  0    -163875.133  -6724401.145  -1498969.184
10 0 59430    942.000000  0    -347878.904  -6854906.440   -605218.357
10 0 59430   1062.000000  0    -527013.613  -6862496.432    299177.864
10 0 59430   1182.000000  0    -695993.289  -6747104.284   1198306.923
10 0 59430   1302.000000  0    -849727.249  -6510927.210   2076335.177
10 0 59430   1422.000000  0    -983450.631  -6158384.845   2917796.387
10 0 59430   1542.000000  0   -1092846.943  -5696032.210   3707873.315
10 0 59430   1662.000000  0   -1174159.873  -5132429.030   4432664.387
10 0 59430   1782.000000  0   -1224292.893  -4477971.762   5079430.061
10 0 59430   1902.000000  0   -1240892.806  -3744693.111   5636817.095
10 0 59430   2022.000000  0   -1222416.547  -2946030.605   6095056.512
10 0 59430   2142.000000  0   -1168178.379  -2096570.974   6446128.643
10 0 59430   2262.000000  0   -1078377.414  -1211779.543   6683896.192
10 0 59430   2382.000000  0    -954106.375   -307716.322   6804206.584
10 0 59430   2502.000000  0    -797341.053    599256.663   6804959.792
10 0 59430   2622.000000  0    -610909.003   1492770.979   6686143.088
10 0 59430   2742.000000  0    -398438.252   2356746.890   6449831.279
10 0 59430   2862.000000  0    -164287.330   3175682.506   6100152.539
10 0 59430   2982.000000  0      86541.835   3934932.988   5643220.840
10 0 59430   3102.000000  0     348506.916   4620975.834   5087034.430
10 0 59430   3222.000000  0     615643.363   5221657.516   4441342.439
10 0 59430   3342.000000  0     881694.512   5726417.045   3717477.526
10 0 59430   3462.000000  0    1140250.035   6126478.525   2928162.064
10 0 59430   3582.000000  0    1384894.760   6415019.094   2087286.268
10 0 59430   3702.000000  0    1609358.087   6587292.329   1209656.900
10 0 59430   3822.000000  0    1807663.188   6640712.247    310730.707
10 0 59430   3942.000000  0    1974271.847   6574892.827   -593665.884
10 0 59430   4062.000000  0    2104220.588   6391643.842  -1487623.393
10 0 59430   4182.000000  0    2193245.485   6094923.422  -2355436.670
10 0 59430   4302.000000  0    2237892.463   5690748.357  -3181887.417
10 0 59430   4422.000000  0    2235610.264   5187063.986  -3952515.876
10 0 59430   4542.000000  0    2184823.569   4593576.690  -4653874.825
10 0 59430   4662.000000  0    2084984.566   3921555.507  -5273760.381
10 0 59430   4782.000000  0    1936603.099   3183608.837  -5801416.781
10 0 59430   4902.000000  0    1741254.742   2393440.967  -6227713.766
10 0 59430   5022.000000  0    1501566.641   1565593.334  -6545292.892
10 0 59430   5142.000000  0    1221183.162    715177.445  -6748683.010
10 0 59430   5262.000000  0     904710.638   -142397.890  -6834385.675
10 0 59430   5382.000000  0     557641.727   -991700.914  -6800928.336
10 0 59430   5502.000000  0     186261.676  -1817547.813  -6648885.211
10 0 59430   5622.000000  0    -202461.834  -2605265.843  -6380868.592
10 0 59430   5742.000000  0    -601005.747  -3340949.287  -6001490.878
10 0 59430   5862.000000  0   -1001432.854  -4011702.791  -5517292.707
10 0 59430   5982.000000  0   -1395544.726  -4605867.658  -4936641.448
10 0 59430   6102.000000  0   -1775045.313  -5113229.604  -4269598.587
10 0 59430   6222.000000  0   -2131712.098  -5525202.427  -3527755.766
10 0 59430   6342.000000  0   -2457570.923  -5834983.103  -2724041.648
10 0 59430   6462.000000  0   -2745070.762  -6037675.158  -1872502.369
10 0 59430   6582.000000  0   -2987254.719  -6130377.431   -988057.993
10 0 59430   6702.000000  0   -3177922.841  -6112234.247    -86238.169
10 0 59430   6822.000000  0   -3311781.587  -5984443.934    817096.908
10 0 59430   6942.000000  0   -3384576.258  -5750226.034   1706043.580
10 0 59430   7062.000000  0   -3393202.944  -5414747.233   2564944.196
10 0 59430   7182.000000  0   -3335796.614  -4985007.679   3378671.333
10 0 59430   7302.000000  0   -3211793.428  -4469691.852   4132900.922
10 0 59430   7422.000000  0   -3021965.957  -3878987.270   4814368.873
10 0 59430   7542.000000  0   -2768430.937  -3224375.416   5411105.520
10 0 59430   7662.000000  0   -2454628.805  -2518401.201   5912644.035
10 0 59430   7782.000000  0   -2085276.253  -1774427.100   6310199.613
10 0 59430   7902.000000  0   -1666293.125  -1006376.474   6596819.311
10 0 59430   8022.000000  0   -1204703.995   -228468.674   6767497.723
10 0 59430   8142.000000  0    -708519.209    545044.621   6819256.462
10 0 59430   8262.000000  0    -186596.277   1300139.161   6751193.607
10 0 59430   8382.000000  0     351518.179   2023272.207   6564498.868
10 0 59430   8502.000000  0     895762.886   2701625.457   6262433.737
10 0 59430   8622.000000  0    1435749.181   3323332.191   5850277.748
10 0 59430   8742.000000  0    1960958.309   3877687.299   5335241.994
10 0 59430   8862.000000  0    2460946.392   4355336.391   4726349.360
10 0 59430   8982.000000  0    2925553.791   4748439.617   4034281.236
10 0 59430   9102.000000  0    3345112.113   5050805.600   3271194.089
10 0 59430   9222.000000  0    3710647.810   5257997.157   2450509.925
10 0 59430   9342.000000  0    4014077.538   5367401.911   1586675.706
10 0 59430   9462.000000  0    4248384.804   5378263.441    694904.805
10 0 59430   9582.000000  0    4407778.988   5291678.918   -209098.452
10 0 59430   9702.000000  0    4487829.472   5110554.847  -1109424.835
10 0 59430   9822.000000  0    4485573.700   4839527.410  -1990247.670
10 0 59430   9942.000000  0    4399595.081   4484849.115  -2836108.302
10 0 59430  10062.000000  0    4230069.270   4054244.486  -3632193.039
10 0 59430  10182.000000  0    3978776.944   3556737.873  -4364594.750
10 0 59430  10302.000000  0    3649085.516   3002459.406  -5020553.311
10 0 59430  10422.000000  0    3245899.940   2402434.129  -5588672.833
10 0 59430  10542.000000  0    2775583.602   1768359.179  -6059111.317
10 0 59430  10662.000000  0    2245852.385   1112373.773  -6423740.309
10 0 59430  10782.000000  0    1665644.176    446827.687  -6676272.883
10 0 59430  10902.000000  0    1044968.217   -215947.346  -6812361.446
10 0 59430  11022.000000  0     394733.319   -863861.885  -6829666.028
10 0 59430  11142.000000  0    -273440.964  -1485284.153  -6727888.230
10 0 59430  11262.000000  0    -947426.067  -2069242.500  -6508775.568
10 0 59430  11382.000000  0   -1614799.331  -2605615.103  -6176096.047
10 0 59430  11502.000000  0   -2263067.710  -3085303.478  -5735579.771
10 0 59430  11622.000000  0   -2879896.902  -3500386.541  -5194830.772
10 0 59430  11742.000000  0   -3453344.912  -3844254.983  -4563208.324
10 0 59430  11862.000000  0   -3972094.726  -4111721.594  -3851675.458
10 0 59430  11982.000000  0   -4425680.434  -4299104.985  -3072618.228
10 0 59430  12102.000000  0   -4804703.316  -4404285.300  -2239636.895
10 0 59430  12222.000000  0   -5101031.930  -4426729.277  -1367311.405
10 0 59430  12342.000000  0   -5307981.132  -4367483.785   -470945.590
10 0 59430  12462.000000  0   -5420465.402  -4229137.653    433705.246
10 0 59430  12582.000000  0   -5435121.956  -4015752.236   1330718.864
10 0 59430  12702.000000  0   -5350398.854  -3732760.915   2204296.228
10 0 59430  12822.000000  0   -5166606.008  -3386840.211   3039048.921
99
